ONEWEB-0034             
1 45454U 20020AG  26066.19302136 -.00000601  00000+0 -17305-2 0  9997
2 45454  87.8877  41.3362 0001862  85.0151 275.1190 13.11415445289222
ONEWEB-0060             
1 45455U 20020AH  26066.01159977 -.00000010  00000+0 -62609-4 0  9995
2 45455  87.8853  41.3821 0001206 117.6758 242.4493 13.11414877289157
ONEWEB-0086             
1 45456U 20020AJ  26066.29560405  .00000588  00000+0  16223-2 0  9995
2 45456  87.8868  41.3134 0001943 106.8809 253.2532 13.11417081289251
ONEWEB-0088             
1 45457U 20020AK  26065.66318313 -.00000179  00000+0 -54033-3 0  9995
2 45457  87.8876  41.4033 0001663  76.1229 284.0084 13.11417724289106
ONEWEB-0102             
1 47258U 20100A   26066.28111803  .00000333  00000+0  89153-3 0  9990
2 47258  87.8996  10.9071 0001842  87.1364 272.9976 13.12443711251363
ONEWEB-0109             
1 47259U 20100B   26066.28959046  .00000530  00000+0  14370-2 0  9997
2 47259  87.9007  10.8791 0001938  83.0456 277.0893 13.12442044251192
ONEWEB-0110             
1 47260U 20100C   26066.31668222 -.00000106  00000+0 -33073-3 0  9999
2 47260  87.9003  10.8589 0001728  88.4621 271.6706 13.12443670251363
ONEWEB-0111             
1 47261U 20100D   26066.27094865  .00000016  00000+0  93067-5 0  9990
2 47261  87.9003  10.8864 0001672  81.0691 279.0627 13.12443994251198
ONEWEB-0114             
1 47262U 20100E   26066.30144735  .00000445  00000+0  12013-2 0  9992
2 47262  87.9005  10.8757 0002053  75.4119 284.7238 13.12441621251150
ONEWEB-0117             
1 47263U 20100F   26066.29297424  .00000409  00000+0  11019-2 0  9990
2 47263  87.9003  10.8720 0001851  81.9743 278.1596 13.12442339251161
ONEWEB-0118             
1 47264U 20100G   26066.25061265 -.00000377  00000+0 -10839-2 0  9994
2 47264  87.9001  10.8826 0001966  70.5221 289.6120 13.12442049251358
ONEWEB-0119             
1 47265U 20100H   26066.27603464  .00000218  00000+0  56929-3 0  9993
2 47265  87.8993  10.9035 0001812  79.1122 281.0210 13.12444084251331
ONEWEB-0120             
1 47266U 20100J   26066.29988835  .00000398  00000+0  10698-2 0  9995
2 47266  87.8995  10.8995 0001940  79.3372 280.7975 13.12441682251367
ONEWEB-0121             
1 47267U 20100K   26066.28789286  .00000471  00000+0  12744-2 0  9990
2 47267  87.8997  10.8789 0001754  81.2701 278.8627 13.12442826251275
ONEWEB-0122             
1 47268U 20100L   26066.28196131  .00000334  00000+0  89181-3 0  9990
2 47268  87.9008  10.8814 0001931  83.0477 277.0871 13.12446406251186
ONEWEB-0123             
1 47269U 20100M   26066.27772689  .00000238  00000+0  62507-3 0  9994
2 47269  87.8996  10.9016 0001830  75.0708 285.0623 13.12443764251327
ONEWEB-0124             
1 47270U 20100N   26066.26755571 -.00000144  00000+0 -43643-3 0  9994
2 47270  87.8991  10.9086 0001652  80.0584 280.0731 13.12443347251200
