[{"OBJECT_NAME":"ONEWEB-0034","OBJECT_ID":"2020-020AG","EPOCH":"2026-03-07T04:37:57.045504","MEAN_MOTION":13.11415445,"ECCENTRICITY":0.00018622,"INCLINATION":87.8877,"RA_OF_ASC_NODE":41.3362,"ARG_OF_PERICENTER":85.0151,"MEAN_ANOMALY":275.119,"EPHEMERIS_TYPE":0,"CLASSIFICATION_TYPE":"U","NORAD_CAT_ID":45454,"ELEMENT_SET_NO":999,"REV_AT_EPOCH":28922,"BSTAR":-0.0017304637,"MEAN_MOTION_DOT":-6.01e-6,"MEAN_MOTION_DDOT":0},{"OBJECT_NAME":"ONEWEB-0060","OBJECT_ID":"2020-020AH","EPOCH":"2026-03-07T00:16:42.220128","MEAN_MOTION":13.11414877,"ECCENTRICITY":0.00012063,"INCLINATION":87.8853,"RA_OF_ASC_NODE":41.3821,"ARG_OF_PERICENTER":117.6758,"MEAN_ANOMALY":242.4493,"EPHEMERIS_TYPE":0,"CLASSIFICATION_TYPE":"U","NORAD_CAT_ID":45455,"ELEMENT_SET_NO":999,"REV_AT_EPOCH":28915,"BSTAR":-6.2608741e-5,"MEAN_MOTION_DOT":-1.0e-7,"MEAN_MOTION_DDOT":0},{"OBJECT_NAME":"ONEWEB-0086","OBJECT_ID":"2020-020AJ","EPOCH":"2026-03-07T07:05:40.189920","MEAN_MOTION":13.11417081,"ECCENTRICITY":0.00019431,"INCLINATION":87.8868,"RA_OF_ASC_NODE":41.3134,"ARG_OF_PERICENTER":106.8809,"MEAN_ANOMALY":253.2532,"EPHEMERIS_TYPE":0,"CLASSIFICATION_TYPE":"U","NORAD_CAT_ID":45456,"ELEMENT_SET_NO":999,"REV_AT_EPOCH":28925,"BSTAR":0.0016222838,"MEAN_MOTION_DOT":5.88e-6,"MEAN_MOTION_DDOT":0},{"OBJECT_NAME":"ONEWEB-0088","OBJECT_ID":"2020-020AK","EPOCH":"2026-03-06T15:54:59.022432","MEAN_MOTION":13.11417724,"ECCENTRICITY":0.00016633,"INCLINATION":87.8876,"RA_OF_ASC_NODE":41.4033,"ARG_OF_PERICENTER":76.1229,"MEAN_ANOMALY":284.0084,"EPHEMERIS_TYPE":0,"CLASSIFICATION_TYPE":"U","NORAD_CAT_ID":45457,"ELEMENT_SET_NO":999,"REV_AT_EPOCH":28910,"BSTAR":-0.00054033277,"MEAN_MOTION_DOT":-1.79e-6,"MEAN_MOTION_DDOT":0},{"OBJECT_NAME":"ONEWEB-0102","OBJECT_ID":"2020-100A","EPOCH":"2026-03-07T06:44:48.597792","MEAN_MOTION":13.12443711,"ECCENTRICITY":0.0001842,"INCLINATION":87.8996,"RA_OF_ASC_NODE":10.9071,"ARG_OF_PERICENTER":87.1364,"MEAN_ANOMALY":272.9976,"EPHEMERIS_TYPE":0,"CLASSIFICATION_TYPE":"U","NORAD_CAT_ID":47258,"ELEMENT_SET_NO":999,"REV_AT_EPOCH":25136,"BSTAR":0.00089152511,"MEAN_MOTION_DOT":3.33e-6,"MEAN_MOTION_DDOT":0},{"OBJECT_NAME":"ONEWEB-0109","OBJECT_ID":"2020-100B","EPOCH":"2026-03-07T06:57:00.615744","MEAN_MOTION":13.12442044,"ECCENTRICITY":0.00019385,"INCLINATION":87.9007,"RA_OF_ASC_NODE":10.8791,"ARG_OF_PERICENTER":83.0456,"MEAN_ANOMALY":277.0893,"EPHEMERIS_TYPE":0,"CLASSIFICATION_TYPE":"U","NORAD_CAT_ID":47259,"ELEMENT_SET_NO":999,"REV_AT_EPOCH":25119,"BSTAR":0.001436995,"MEAN_MOTION_DOT":5.3e-6,"MEAN_MOTION_DDOT":0},{"OBJECT_NAME":"ONEWEB-0110","OBJECT_ID":"2020-100C","EPOCH":"2026-03-07T07:36:01.343808","MEAN_MOTION":13.1244367,"ECCENTRICITY":0.0001728,"INCLINATION":87.9003,"RA_OF_ASC_NODE":10.8589,"ARG_OF_PERICENTER":88.4621,"MEAN_ANOMALY":271.6706,"EPHEMERIS_TYPE":0,"CLASSIFICATION_TYPE":"U","NORAD_CAT_ID":47260,"ELEMENT_SET_NO":999,"REV_AT_EPOCH":25136,"BSTAR":-0.00033073352,"MEAN_MOTION_DOT":-1.06e-6,"MEAN_MOTION_DDOT":0},{"OBJECT_NAME":"ONEWEB-0111","OBJECT_ID":"2020-100D","EPOCH":"2026-03-07T06:30:09.963360","MEAN_MOTION":13.12443994,"ECCENTRICITY":0.00016725,"INCLINATION":87.9003,"RA_OF_ASC_NODE":10.8864,"ARG_OF_PERICENTER":81.0691,"MEAN_ANOMALY":279.0627,"EPHEMERIS_TYPE":0,"CLASSIFICATION_TYPE":"U","NORAD_CAT_ID":47261,"ELEMENT_SET_NO":999,"REV_AT_EPOCH":25119,"BSTAR":9.306682e-6,"MEAN_MOTION_DOT":1.6e-7,"MEAN_MOTION_DDOT":0},{"OBJECT_NAME":"ONEWEB-0114","OBJECT_ID":"2020-100E","EPOCH":"2026-03-07T07:14:05.051040","MEAN_MOTION":13.12441621,"ECCENTRICITY":0.00020536,"INCLINATION":87.9005,"RA_OF_ASC_NODE":10.8757,"ARG_OF_PERICENTER":75.4119,"MEAN_ANOMALY":284.7238,"EPHEMERIS_TYPE":0,"CLASSIFICATION_TYPE":"U","NORAD_CAT_ID":47262,"ELEMENT_SET_NO":999,"REV_AT_EPOCH":25115,"BSTAR":0.0012012757,"MEAN_MOTION_DOT":4.45e-6,"MEAN_MOTION_DDOT":0},{"OBJECT_NAME":"ONEWEB-0117","OBJECT_ID":"2020-100F","EPOCH":"2026-03-07T07:01:52.974336","MEAN_MOTION":13.12442339,"ECCENTRICITY":0.00018514,"INCLINATION":87.9003,"RA_OF_ASC_NODE":10.872,"ARG_OF_PERICENTER":81.9743,"MEAN_ANOMALY":278.1596,"EPHEMERIS_TYPE":0,"CLASSIFICATION_TYPE":"U","NORAD_CAT_ID":47263,"ELEMENT_SET_NO":999,"REV_AT_EPOCH":25116,"BSTAR":0.0011018811,"MEAN_MOTION_DOT":4.09e-6,"MEAN_MOTION_DDOT":0},{"OBJECT_NAME":"ONEWEB-0118","OBJECT_ID":"2020-100G","EPOCH":"2026-03-07T06:00:52.932960","MEAN_MOTION":13.12442049,"ECCENTRICITY":0.00019661,"INCLINATION":87.9001,"RA_OF_ASC_NODE":10.8826,"ARG_OF_PERICENTER":70.5221,"MEAN_ANOMALY":289.612,"EPHEMERIS_TYPE":0,"CLASSIFICATION_TYPE":"U","NORAD_CAT_ID":47264,"ELEMENT_SET_NO":999,"REV_AT_EPOCH":25135,"BSTAR":-0.0010839073,"MEAN_MOTION_DOT":-3.77e-6,"MEAN_MOTION_DDOT":0},{"OBJECT_NAME":"ONEWEB-0119","OBJECT_ID":"2020-100H","EPOCH":"2026-03-07T06:37:29.392896","MEAN_MOTION":13.12444084,"ECCENTRICITY":0.00018124,"INCLINATION":87.8993,"RA_OF_ASC_NODE":10.9035,"ARG_OF_PERICENTER":79.1122,"MEAN_ANOMALY":281.021,"EPHEMERIS_TYPE":0,"CLASSIFICATION_TYPE":"U","NORAD_CAT_ID":47265,"ELEMENT_SET_NO":999,"REV_AT_EPOCH":25133,"BSTAR":0.00056929264,"MEAN_MOTION_DOT":2.18e-6,"MEAN_MOTION_DDOT":0},{"OBJECT_NAME":"ONEWEB-0120","OBJECT_ID":"2020-100J","EPOCH":"2026-03-07T07:11:50.353440","MEAN_MOTION":13.12441682,"ECCENTRICITY":0.00019404,"INCLINATION":87.8995,"RA_OF_ASC_NODE":10.8995,"ARG_OF_PERICENTER":79.3372,"MEAN_ANOMALY":280.7975,"EPHEMERIS_TYPE":0,"CLASSIFICATION_TYPE":"U","NORAD_CAT_ID":47266,"ELEMENT_SET_NO":999,"REV_AT_EPOCH":25136,"BSTAR":0.0010698216,"MEAN_MOTION_DOT":3.98e-6,"MEAN_MOTION_DDOT":0},{"OBJECT_NAME":"ONEWEB-0121","OBJECT_ID":"2020-100K","EPOCH":"2026-03-07T06:54:33.943104","MEAN_MOTION":13.12442826,"ECCENTRICITY":0.00017542,"INCLINATION":87.8997,"RA_OF_ASC_NODE":10.8789,"ARG_OF_PERICENTER":81.2701,"MEAN_ANOMALY":278.8627,"EPHEMERIS_TYPE":0,"CLASSIFICATION_TYPE":"U","NORAD_CAT_ID":47267,"ELEMENT_SET_NO":999,"REV_AT_EPOCH":25127,"BSTAR":0.0012743532,"MEAN_MOTION_DOT":4.71e-6,"MEAN_MOTION_DDOT":0},{"OBJECT_NAME":"ONEWEB-0122","OBJECT_ID":"2020-100L","EPOCH":"2026-03-07T06:46:01.457184","MEAN_MOTION":13.12446406,"ECCENTRICITY":0.00019316,"INCLINATION":87.9008,"RA_OF_ASC_NODE":10.8814,"ARG_OF_PERICENTER":83.0477,"MEAN_ANOMALY":277.0871,"EPHEMERIS_TYPE":0,"CLASSIFICATION_TYPE":"U","NORAD_CAT_ID":47268,"ELEMENT_SET_NO":999,"REV_AT_EPOCH":25118,"BSTAR":0.00089180632,"MEAN_MOTION_DOT":3.34e-6,"MEAN_MOTION_DDOT":0},{"OBJECT_NAME":"ONEWEB-0123","OBJECT_ID":"2020-100M","EPOCH":"2026-03-07T06:39:55.603296","MEAN_MOTION":13.12443764,"ECCENTRICITY":0.00018309,"INCLINATION":87.8996,"RA_OF_ASC_NODE":10.9016,"ARG_OF_PERICENTER":75.0708,"MEAN_ANOMALY":285.0623,"EPHEMERIS_TYPE":0,"CLASSIFICATION_TYPE":"U","NORAD_CAT_ID":47269,"ELEMENT_SET_NO":999,"REV_AT_EPOCH":25132,"BSTAR":0.00062507289,"MEAN_MOTION_DOT":2.38e-6,"MEAN_MOTION_DDOT":0},{"OBJECT_NAME":"ONEWEB-0124","OBJECT_ID":"2020-100N","EPOCH":"2026-03-07T06:25:16.813344","MEAN_MOTION":13.12443347,"ECCENTRICITY":0.00016527,"INCLINATION":87.8991,"RA_OF_ASC_NODE":10.9086,"ARG_OF_PERICENTER":80.0584,"MEAN_ANOMALY":280.0731,"EPHEMERIS_TYPE":0,"CLASSIFICATION_TYPE":"U","NORAD_CAT_ID":47270,"ELEMENT_SET_NO":999,"REV_AT_EPOCH":25120,"BSTAR":-0.00043643091,"MEAN_MOTION_DOT":-1.44e-6,"MEAN_MOTION_DDOT":0}]
